[{"OBJECT_NAME":"STARLINK-5113","OBJECT_ID":"2022-125AA","EPOCH":"2026-03-09T21:45:23.095584","MEAN_MOTION":15.08837383,"ECCENTRICITY":0.0001202,"INCLINATION":53.2169,"RA_OF_ASC_NODE":213.2635,"ARG_OF_PERICENTER":77.9761,"MEAN_ANOMALY":282.1366,"EPHEMERIS_TYPE":0,"CLASSIFICATION_TYPE":"U","NORAD_CAT_ID":53988,"ELEMENT_SET_NO":999,"REV_AT_EPOCH":18948,"BSTAR":0.0002331101,"MEAN_MOTION_DOT":3.424e-5,"MEAN_MOTION_DDOT":0},{"OBJECT_NAME":"FENGYUN 1C DEB","OBJECT_ID":"1999-025DDJ","EPOCH":"2026-03-01T18:34:40.606176","MEAN_MOTION":14.6204627,"ECCENTRICITY":0.02210591,"INCLINATION":98.62,"RA_OF_ASC_NODE":179.8313,"ARG_OF_PERICENTER":250.664,"MEAN_ANOMALY":107.0539,"EPHEMERIS_TYPE":0,"CLASSIFICATION_TYPE":"U","NORAD_CAT_ID":33625,"ELEMENT_SET_NO":999,"REV_AT_EPOCH":62545,"BSTAR":0.0012246157,"MEAN_MOTION_DOT":8.674e-5,"MEAN_MOTION_DDOT":0}]
